IRIDIUM 106             
1 41917U 17003A   25194.50886764  .00000035  00000+0  54937-5 0  9998
2 41917  86.3955 230.0030 0001830  88.4786 271.6619 14.34217824444663
IRIDIUM 103             
1 41918U 17003B   25194.49618397  .00000012  00000+0 -26473-5 0  9992
2 41918  86.3959 229.9090 0002452  78.6923 281.4548 14.34217608444688
IRIDIUM 109             
1 41919U 17003C   25194.57229485  .00000029  00000+0  31951-5 0  9992
2 41919  86.3956 229.9311 0002472  90.6712 269.4767 14.34217734444661
IRIDIUM 102             
1 41920U 17003D   25194.54058199  .00000048  00000+0  10223-4 0  9992
2 41920  86.3955 229.8751 0002392  94.2809 265.8660 14.34217823444747
IRIDIUM 105             
1 41921U 17003E   25194.51131667 -.00000002  00000+0 -77401-5 0  9996
2 41921  86.3990 198.3626 0002287  84.7098 275.4358 14.34217050446593
IRIDIUM 104             
1 41922U 17003F   25194.55326775  .00000042  00000+0  79256-5 0  9999
2 41922  86.3956 229.9074 0002708  87.7976 272.3530 14.34217795444738
IRIDIUM 114             
1 41923U 17003G   25194.55960928  .00000166  00000+0  52327-4 0  9990
2 41923  86.3956 229.8891 0002311  84.7408 275.4052 14.34218112444717
IRIDIUM 108             
1 41924U 17003H   25194.51813021  .00000022  00000+0  81397-6 0  9990
2 41924  86.3980 198.2593 0002146  92.4104 267.7338 14.34217719446566
